OBJECT_NAME,OBJECT_ID,EPOCH,MEAN_MOTION,ECCENTRICITY,INCLINATION,RA_OF_ASC_NODE,ARG_OF_PERICENTER,MEAN_ANOMALY,EPHEMERIS_TYPE,CLASSIFICATION_TYPE,NORAD_CAT_ID,ELEMENT_SET_NO,REV_AT_EPOCH,BSTAR,MEAN_MOTION_DOT,MEAN_MOTION_DDOT
SWARM A,2013-067B,2026-06-15T11:27:40.641408,15.50925584,.00030105,87.3329,56.8775,94.7541,265.4064,0,U,39452,999,70598,.15874104E-3,.9228E-4,0
SWARM C,2013-067C,2026-06-15T14:33:20.378304,15.50925282,.00029809,87.3328,55.4106,92.7589,267.4013,0,U,39453,999,70596,.12449851E-3,.7247E-4,0
BRITE-CA1 (TORONTO),2014-033L,2026-06-15T08:08:24.353664,14.72674284,.00772454,97.9736,295.3012,283.0419,76.2174,0,U,40020,999,64194,.97618131E-4,.597E-5,0
OCO 2,2014-035A,2026-06-15T13:49:33.409632,14.57110069,.00015002,98.2018,107.8936,85.7408,274.3962,0,U,40059,999,63581,.85127478E-4,.338E-5,0
BRITE-PL2 (HEWELIUSZ),2014-049B,2026-06-15T13:34:25.369824,14.94588461,.00152335,97.9096,278.5530,113.2986,246.9839,0,U,40119,999,64120,.13480823E-3,.1402E-4,0
MMS 1,2015-011A,2026-06-15T16:00:00.999936,0.28354798,.83221413,72.1894,348.7771,167.4046,143.3314,0,U,40482,999,137,0,-.673E-5,0
MMS 2,2015-011B,2026-06-15T16:00:00.999936,0.28354871,.83229193,72.1899,348.7792,167.4091,143.3269,0,U,40483,999,137,0,-.673E-5,0
MMS 3,2015-011C,2026-06-15T16:00:00.999936,0.28354822,.83217113,72.1891,348.7795,167.4114,143.3111,0,U,40484,999,137,0,-.673E-5,0
MMS 4,2015-011D,2026-06-15T16:00:00.999936,0.28354822,.83217113,72.1891,348.7795,167.4114,143.3111,0,U,40485,999,137,0,-.673E-5,0
ASTROSAT,2015-052A,2026-06-15T13:03:37.935648,14.82504818,.00078138,5.9956,167.1769,7.2508,352.7733,0,U,40930,999,57958,.92748678E-4,.1433E-4,0
DAMPE,2015-078A,2026-06-15T14:23:23.202240,15.30782803,.00138062,97.4550,172.0584,82.0230,278.2577,0,U,41173,999,58430,.51373035E-4,.1454E-4,0
PISAT,2016-059B,2026-06-15T13:51:23.140224,14.68981043,.00282419,97.8179,167.0993,208.0527,151.9159,0,U,41784,999,51950,.13228117E-3,.732E-5,0
HXMT (HUIYAN),2017-034A,2026-06-15T13:20:09.302208,15.18469377,.00304298,43.0126,192.1261,136.4775,223.8482,0,U,42758,999,49741,.13187175E-3,.2553E-4,0
FLYING LAPTOP,2017-042G,2026-06-15T14:03:27.528192,15.01137329,.00195047,97.4673,322.1799,126.8484,233.4533,0,U,42831,999,48621,.26017935E-3,.3288E-4,0
ZHANGHENG 1-01 (CSES-1),2018-015C,2026-06-15T15:00:57.824928,15.20794086,.00170338,97.6864,332.2518,272.2949,87.6335,0,U,43194,999,46440,.2656343E-3,.5803E-4,0
SALSAT,2020-068K,2026-06-15T13:48:58.396896,15.29779983,.0008147,97.8844,169.5420,315.1312,44.9267,0,U,46495,999,31511,.22681759E-3,.6463E-4,0
IXPE,2021-121A,2026-06-15T16:00:00.999936,15.10238504,.00074751,0.2308,329.1396,56.8726,247.7217,0,U,49954,999,533,.53053634E-3,.9872E-4,0
SMILE,2026-109A,2026-05-24T15:40:35.120928,14.57062785,.00091232,70.0007,229.2745,259.5159,100.4951,0,U,69123,999,80,-.42378883E-3,-.1976E-4,0
